[{"OBJECT_NAME":"STARLINK-30095","OBJECT_ID":"2023-056D","EPOCH":"2026-03-09T22:00:01.999584","MEAN_MOTION":15.26748079,"ECCENTRICITY":0.00011913,"INCLINATION":43.003,"RA_OF_ASC_NODE":181.6942,"ARG_OF_PERICENTER":278.916,"MEAN_ANOMALY":30.7341,"EPHEMERIS_TYPE":0,"CLASSIFICATION_TYPE":"U","NORAD_CAT_ID":56289,"ELEMENT_SET_NO":999,"REV_AT_EPOCH":578,"BSTAR":0.00026116241,"MEAN_MOTION_DOT":6.754e-5,"MEAN_MOTION_DDOT":0},{"OBJECT_NAME":"COSMOS 397 DEB","OBJECT_ID":"1971-015AP","EPOCH":"2026-03-09T23:21:39.504096","MEAN_MOTION":15.2848821,"ECCENTRICITY":0.00875373,"INCLINATION":65.5189,"RA_OF_ASC_NODE":36.1077,"ARG_OF_PERICENTER":68.9592,"MEAN_ANOMALY":292.0879,"EPHEMERIS_TYPE":0,"CLASSIFICATION_TYPE":"U","NORAD_CAT_ID":5192,"ELEMENT_SET_NO":999,"REV_AT_EPOCH":75637,"BSTAR":0.0038413279,"MEAN_MOTION_DOT":0.00121672,"MEAN_MOTION_DDOT":0}]
